NORAD_CAT_ID,OBJECT_NAME,OBJECT_TYPE,EPOCH,MEAN_MOTION,ECCENTRICITY,INCLINATION,RA_OF_ASC_NODE,ARG_OF_PERICENTER,MEAN_ANOMALY,BSTAR,MEAN_MOTION_DOT,MEAN_MOTION_DDOT,TLE_LINE0,TLE_LINE1,TLE_LINE2,SEMIMAJOR_AXIS,PERIOD,APOGEE,PERIGEE,DECAYED
56465.0,STARLINK-6054,PAYLOAD,2023-06-07 20:00:01,15.69857532,0.0003483,69.9988,165.405,260.8682,224.703,0.00089723,0.00108782,0.0,0 STARLINK-6054,1 56465U 23064T   23158.83334491  .00108782  00000-0  89723-3 0  9993,2 56465  69.9988 165.4050 0003483 260.8682 224.7030 15.69857532  4809,6737.442,91.728,361.653,356.96,0.0
56465.0,STARLINK-6054,PAYLOAD,2023-06-08 01:35:03,15.69911801,0.0003275,69.9955,164.7509,263.4434,96.6389,-2.2891e-05,-2.963e-05,0.0,0 STARLINK-6054,1 56465U 23064T   23159.06601310 -.00002963  00000-0 -22891-4 0  9996,2 56465  69.9955 164.7509 0003275 263.4434  96.6389 15.69911801  4844,6737.286,91.725,361.358,356.945,0.0
56465.0,STARLINK-6054,PAYLOAD,2023-06-08 09:13:49,15.69917877,0.0002866,69.9972,163.8557,260.7804,99.3067,5.036e-06,3.93e-06,0.0,0 STARLINK-6054,1 56465U 23064T   23159.38459885  .00000393  00000-0  50360-5 0  9995,2 56465  69.9972 163.8557 0002866 260.7804  99.3067 15.69917877  4541,6737.269,91.725,361.065,357.203,0.0
56465.0,STARLINK-6054,PAYLOAD,2023-06-09 09:41:50,15.69930684,0.0003608,69.9985,160.9887,257.4642,102.615,3.366e-05,3.838e-05,0.0,0 STARLINK-6054,1 56465U 23064T   23160.40405820  .00003838  00000-0  33660-4 0  9990,2 56465  69.9985 160.9887 0003608 257.4642 102.6150 15.69930684  5056,6737.232,91.724,361.528,356.667,0.0
56465.0,STARLINK-6054,PAYLOAD,2023-06-09 17:20:36,15.6992662,0.0003626,69.9988,160.0929,257.7485,102.3304,1.4202e-05,1.495e-05,0.0,0 STARLINK-6054,1 56465U 23064T   23160.72264268  .00001495  00000-0  14202-4 0  9992,2 56465  69.9988 160.0929 0003626 257.7485 102.3304 15.69926620  4754,6737.244,91.724,361.552,356.666,0.0
56465.0,STARLINK-6054,PAYLOAD,2023-06-10 11:41:37,15.69936513,0.0003718,69.999,157.9413,256.5453,103.5328,4.6984e-07,-1.56e-06,0.0,0 STARLINK-6054,1 56465U 23064T   23161.48723723 -.00000156  00000-0  46984-6 0  9990,2 56465  69.9990 157.9413 0003718 256.5453 103.5328 15.69936513  4878,6737.216,91.723,361.586,356.576,0.0
56465.0,STARLINK-6054,PAYLOAD,2023-06-10 23:55:38,15.69925155,0.0003442,69.9998,156.5114,259.502,100.5788,1.5056e-05,1.598e-05,0.0,0 STARLINK-6054,1 56465U 23064T   23161.99697738  .00001598  00000-0  15056-4 0  9996,2 56465  69.9998 156.5114 0003442 259.5020 100.5788 15.69925155  5302,6737.248,91.724,361.432,356.794,0.0
56465.0,STARLINK-6054,PAYLOAD,2023-06-11 12:09:39,15.69928105,0.0003854,69.9995,155.0787,264.3405,95.7351,2.0886e-05,2.3e-05,0.0,0 STARLINK-6054,1 56465U 23064T   23162.50671009  .00002300  00000-0  20886-4 0  9996,2 56465  69.9995 155.0787 0003854 264.3405  95.7351 15.69928105  5036,6737.24,91.724,361.701,356.508,0.0
56465.0,STARLINK-6054,PAYLOAD,2023-06-11 16:44:55,15.69926572,0.0003466,69.9986,154.5409,263.6062,96.4739,2.0023e-05,2.196e-05,0.0,0 STARLINK-6054,1 56465U 23064T   23162.69786196  .00002196  00000-0  20023-4 0  9996,2 56465  69.9986 154.5409 0003466 263.6062  96.4739 15.69926572  5068,6737.244,91.724,361.444,356.774,0.0
56465.0,STARLINK-6054,PAYLOAD,2023-06-12 01:55:25,15.69928287,0.0003578,69.9996,153.4645,263.7874,96.2914,2.2946e-05,2.548e-05,0.0,0 STARLINK-6054,1 56465U 23064T   23163.08016094  .00002548  00000-0  22946-4 0  9990,2 56465  69.9996 153.4645 0003578 263.7874  96.2914 15.69928287  5120,6737.239,91.724,361.515,356.694,0.0
56465.0,STARLINK-6054,PAYLOAD,2023-06-12 08:02:26,15.6993588,0.0003396,69.9994,152.7478,262.7252,97.3558,4.2029e-05,4.846e-05,0.0,0 STARLINK-6054,1 56465U 23064T   23163.33502497  .00004846  00000-0  42029-4 0  9992,2 56465  69.9994 152.7478 0003396 262.7252  97.3558 15.69935880  5517,6737.217,91.723,361.37,356.794,0.0
56465.0,STARLINK-6054,PAYLOAD,2023-06-12 09:34:11,15.69912025,0.0003239,70.0,152.5697,273.4329,86.6496,-2.1108e-05,-2.749e-05,0.0,0 STARLINK-6054,1 56465U 23064T   23163.39874946 -.00002749  00000-0 -21108-4 0  9996,2 56465  70.0000 152.5697 0003239 273.4329  86.6496 15.69912025  5179,6737.286,91.725,361.333,356.968,0.0
56465.0,STARLINK-6054,PAYLOAD,2023-06-13 05:26:58,15.69935343,0.0003168,69.9987,150.2391,261.2346,98.8491,4.6488e-05,5.383e-05,0.0,0 STARLINK-6054,1 56465U 23064T   23164.22706019  .00005383  00000-0  46488-4 0  9997,2 56465  69.9987 150.2391 0003168 261.2346  98.8491 15.69935343  5652,6737.219,91.724,361.218,356.95,0.0
56465.0,STARLINK-6054,PAYLOAD,2023-06-13 06:58:43,15.69937195,0.0003385,69.9993,150.0611,264.1161,95.9649,7.0407e-05,8.266e-05,0.0,0 STARLINK-6054,1 56465U 23064T   23164.29077695  .00008266  00000-0  70407-4 0  9996,2 56465  69.9993 150.0611 0003385 264.1161  95.9649 15.69937195  5313,6737.214,91.723,361.359,356.798,0.0
56465.0,STARLINK-6054,PAYLOAD,2023-06-13 22:16:14,15.69931279,0.0003064,70.0001,148.27,266.2267,93.8578,4.9383e-05,5.731e-05,0.0,0 STARLINK-6054,1 56465U 23064T   23164.92794751  .00005731  00000-0  49383-4 0  9998,2 56465  70.0001 148.2700 0003064 266.2267  93.8578 15.69931279  5762,6737.231,91.724,361.16,357.031,0.0
56465.0,STARLINK-6054,PAYLOAD,2023-06-14 10:30:15,15.69930507,0.0003676,69.9994,146.8361,272.6895,87.388,6.6223e-05,7.76e-05,0.0,0 STARLINK-6054,1 56465U 23064T   23165.43768121  .00007760  00000-0  66223-4 0  9993,2 56465  69.9994 146.8361 0003676 272.6895  87.3880 15.69930507  5491,6737.233,91.724,361.574,356.621,0.0
56465.0,STARLINK-6054,PAYLOAD,2023-06-14 22:44:16,15.69923632,0.0003443,70.0021,145.4064,271.4172,88.6629,3.1778e-05,3.61e-05,0.0,0 STARLINK-6054,1 56465U 23064T   23165.94741715  .00003610  00000-0  31778-4 0  9996,2 56465  70.0021 145.4064 0003443 271.4172  88.6629 15.69923632  5921,6737.252,91.724,361.437,356.798,0.0
56465.0,STARLINK-6054,PAYLOAD,2023-06-15 10:58:17,15.6992006,0.0003074,70.0,143.9729,274.2876,85.7968,-1.5569e-06,-4e-06,0.0,0 STARLINK-6054,1 56465U 23064T   23166.45715175 -.00000400  00000-0 -15569-5 0  9991,2 56465  70.0000 143.9729 0003074 274.2876  85.7968 15.69920060  5657,6737.263,91.724,361.199,357.057,0.0
56465.0,STARLINK-6054,PAYLOAD,2023-06-15 15:33:32,15.69932673,0.0003802,70.0005,143.435,267.2332,92.8429,3.6667e-05,4.2e-05,0.0,0 STARLINK-6054,1 56465U 23064T   23166.64829624  .00004200  00000-0  36667-4 0  9998,2 56465  70.0005 143.4350 0003802 267.2332  92.8429 15.69932673  5682,6737.227,91.724,361.653,356.53,0.0
56465.0,STARLINK-6054,PAYLOAD,2023-06-16 00:44:03,15.69934558,0.0003046,70.0009,142.3589,270.8387,89.246,5.2971e-05,6.164e-05,0.0,0 STARLINK-6054,1 56465U 23064T   23167.03059851  .00006164  00000-0  52971-4 0  9996,2 56465  70.0009 142.3589 0003046 270.8387  89.2460 15.69934558  6093,6737.221,91.724,361.138,357.034,0.0
56465.0,STARLINK-6054,PAYLOAD,2023-06-16 09:54:34,15.69923539,0.0002726,70.0014,141.2838,280.2561,79.8327,-1.0994e-06,-3.44e-06,0.0,0 STARLINK-6054,1 56465U 23064T   23167.41290079 -.00000344  00000-0 -10994-5 0  9993,2 56465  70.0014 141.2838 0002726 280.2561  79.8327 15.69923539  6158,6737.253,91.724,360.954,357.281,0.0
56465.0,STARLINK-6054,PAYLOAD,2023-06-16 16:01:34,15.69929913,0.0002868,70.0,140.5694,275.9756,84.1113,2.8551e-05,3.222e-05,0.0,0 STARLINK-6054,1 56465U 23064T   23167.66776590  .00003222  00000-0  28551-4 0  9990,2 56465  70.0000 140.5694 0002868 275.9756  84.1113 15.69929913  5848,6737.235,91.724,361.032,357.167,0.0
56465.0,STARLINK-6054,PAYLOAD,2023-06-17 10:22:36,15.69922058,0.000337,70.0002,138.4171,261.7434,98.338,6.1383e-05,7.174e-05,0.0,0 STARLINK-6054,1 56465U 23064T   23168.43237058  .00007174  00000-0  61383-4 0  9997,2 56465  70.0002 138.4171 0003370 261.7434  98.3380 15.69922058  5960,6737.257,91.724,361.392,356.852,0.0
56465.0,STARLINK-6054,PAYLOAD,2023-06-17 14:57:52,15.69922628,0.000347,70.0002,137.8804,261.9902,98.09,9.4918e-05,0.00011215,0.0,0 STARLINK-6054,1 56465U 23064T   23168.62352207  .00011215  00000-0  94918-4 0  9993,2 56465  70.0002 137.8804 0003470 261.9902  98.0900 15.69922628  6340,6737.255,91.724,361.458,356.783,0.0
56465.0,STARLINK-6054,PAYLOAD,2023-06-17 21:04:52,15.69930934,0.0003493,70.0002,137.1638,260.8375,99.2426,0.00012947,0.00015388,0.0,0 STARLINK-6054,1 56465U 23064T   23168.87838837  .00015388  00000-0  12947-3 0  9994,2 56465  70.0002 137.1638 0003493 260.8375  99.2426 15.69930934  6036,6737.232,91.724,361.45,356.743,0.0
56465.0,STARLINK-6054,PAYLOAD,2023-06-18 04:43:38,15.69940721,0.0003495,70.0002,136.2683,262.7191,97.3608,0.0001259,0.00014963,0.0,0 STARLINK-6054,1 56465U 23064T   23169.19696935  .00014963  00000-0  12590-3 0  9993,2 56465  70.0002 136.2683 0003495 262.7191  97.3608 15.69940721  6086,6737.204,91.723,361.423,356.714,0.0
56465.0,STARLINK-6054,PAYLOAD,2023-06-18 15:25:54,15.69933242,0.0003147,70.0003,135.0146,262.901,97.1828,5.7004e-05,6.649e-05,0.0,0 STARLINK-6054,1 56465U 23064T   23169.64298775  .00006649  00000-0  57004-4 0  9995,2 56465  70.0003 135.0146 0003147 262.9010  97.1828 15.69933242  6503,6737.225,91.724,361.21,356.97,0.0
56465.0,STARLINK-6054,PAYLOAD,2023-06-19 03:39:54,15.69944042,0.0003098,70.0007,133.5815,262.2495,97.8349,0.00010923,0.00012952,0.0,0 STARLINK-6054,1 56465U 23064T   23170.15271806  .00012952  00000-0  10923-3 0  9991,2 56465  70.0007 133.5815 0003098 262.2495  97.8349 15.69944042  6233,6737.194,91.723,361.146,356.972,0.0
56465.0,STARLINK-6054,PAYLOAD,2023-06-19 06:43:25,15.69934914,0.0003468,70.0005,133.2231,261.3301,98.7502,6.017e-05,7.032e-05,0.0,0 STARLINK-6054,1 56465U 23064T   23170.28015179  .00007032  00000-0  60170-4 0  9997,2 56465  70.0005 133.2231 0003468 261.3301  98.7502 15.69934914  6257,6737.22,91.724,361.422,356.749,0.0
56465.0,STARLINK-6054,PAYLOAD,2023-06-20 04:07:56,15.6993129,0.0003293,70.0004,130.7162,263.6338,96.4482,4.5786e-05,5.298e-05,0.0,0 STARLINK-6054,1 56465U 23064T   23171.17218740  .00005298  00000-0  45786-4 0  9993,2 56465  70.0004 130.7162 0003293 263.6338  96.4482 15.69931290  6742,6737.231,91.724,361.314,356.877,0.0
